INTELSAT 902 (IS-902)   
1 26900U 01039A   26087.89137822 -.00000298  00000+0  00000+0 0  9991
2 26900   5.9150  72.7497 0004609 295.2765  89.0745  1.00270929 89897
INTELSAT 904 (IS-904)   
1 27380U 02007A   26088.20132775 -.00000239  00000+0  00000+0 0  9993
2 27380   6.7218  70.1308 0007101 322.0824 195.3713  1.00270099 50962
DIRECTV 5 (TEMPO 1)     
1 27426U 02023A   26088.09339816 -.00000073  00000+0  00000+0 0  9990
2 27426   4.6743  76.2922 0003538 293.7781  99.9415  1.00271724 87322
INTELSAT 905 (IS-905)   
1 27438U 02027A   26088.00322461  .00000080  00000+0  00000+0 0  9993
2 27438   6.5537  70.7516 0003092 303.9568  35.6616  1.00272596 50550
GALAXY 3C (G-3C)        
1 27445U 02030A   26087.33517012 -.00000169  00000+0  00000+0 0  9997
2 27445   3.5233  79.0943 0001198  26.0425 106.4195  1.00270958 45681
INTELSAT 906 (IS-906)   
1 27513U 02041A   26088.05656468 -.00000002  00000+0  00000+0 0  9990
2 27513   5.6013  73.8931 0003390 297.8281 259.2491  1.00270543 86220
GALAXY 13 (HORIZONS-1)  
1 27954U 03044A   26088.15680693  .00000114  00000+0  00000+0 0  9994
2 27954   1.2114  84.8790 0002184 285.5814  82.5332  1.00272351 45779
INTELSAT 10-02          
1 28358U 04022A   26087.94350413 -.00000031  00000+0  00000+0 0  9999
2 28358   0.0371  60.9326 0001272 359.1390 104.8927  1.00272131 79753
DIRECTV 8               
1 28659U 05019A   26088.21956038  .00000000  00000+0  00000+0 0  9991
2 28659   0.0248 176.3736 0003307 202.5301 127.7190  1.00270562 76277
GALAXY 28 (G-28)        
1 28702U 05022A   26088.18116036 -.00000217  00000+0  00000+0 0  9997
2 28702   3.0922  79.9135 0002278 289.1949 215.6108  1.00272027 51170
GALAXY 16 (G-16)        
1 29236U 06023A   26088.22090558 -.00000146  00000+0  00000+0 0  9998
2 29236   0.0147 187.6425 0002716 185.8637 153.6368  1.00271911 72174
DIRECTV 9S              
1 29494U 06043A   26088.14091953 -.00000131  00000+0  00000+0 0  9991
2 29494   2.2149  81.8507 0003516 297.2327 116.9935  1.00271652 50580
GALAXY 17 (G-17)        
1 31307U 07016B   26088.16963366 -.00000223  00000+0  00000+0 0  9998
2 31307   2.7704  80.8884 0003708 297.8942 143.8500  1.00270697 69009
INTELSAT 11 (IS-11)     
1 32253U 07044B   26087.99607110 -.00000219  00000+0  00000+0 0  9997
2 32253   3.3574  79.6263 0003568 215.2094   8.6477  0.99050169 67652
HORIZONS-2              
1 32388U 07063B   26088.17188699 -.00000271  00000+0  00000+0 0  9992
2 32388   2.3965  81.5992 0002644 289.2440 163.8118  1.00272249 67019
DIRECTV 11              
1 32729U 08013A   26088.13239253  .00000000  00000+0  00000+0 0  9995
2 32729   0.0079 114.4083 0000364 223.4014 157.2057  1.00269436 44793
GALAXY 18 (G-18)        
1 32951U 08024A   26088.09088481  .00000006  00000+0  00000+0 0  9990
2 32951   0.0209 110.4122 0002906 259.9094  85.8812  1.00272332 45044
