[{"OBJECT_NAME":"INTELSAT 902 (IS-902)","OBJECT_ID":"2001-039A","EPOCH":"2026-03-28T21:23:35.078208","MEAN_MOTION":1.00270929,"ECCENTRICITY":0.0004609,"INCLINATION":5.915,"RA_OF_ASC_NODE":72.7497,"ARG_OF_PERICENTER":295.2765,"MEAN_ANOMALY":89.0745,"EPHEMERIS_TYPE":0,"CLASSIFICATION_TYPE":"U","NORAD_CAT_ID":26900,"ELEMENT_SET_NO":999,"REV_AT_EPOCH":8989,"BSTAR":0,"MEAN_MOTION_DOT":-2.98e-6,"MEAN_MOTION_DDOT":0},{"OBJECT_NAME":"INTELSAT 904 (IS-904)","OBJECT_ID":"2002-007A","EPOCH":"2026-03-29T04:49:54.717600","MEAN_MOTION":1.00270099,"ECCENTRICITY":0.0007101,"INCLINATION":6.7218,"RA_OF_ASC_NODE":70.1308,"ARG_OF_PERICENTER":322.0824,"MEAN_ANOMALY":195.3713,"EPHEMERIS_TYPE":0,"CLASSIFICATION_TYPE":"U","NORAD_CAT_ID":27380,"ELEMENT_SET_NO":999,"REV_AT_EPOCH":5096,"BSTAR":0,"MEAN_MOTION_DOT":-2.39e-6,"MEAN_MOTION_DDOT":0},{"OBJECT_NAME":"DIRECTV 5 (TEMPO 1)","OBJECT_ID":"2002-023A","EPOCH":"2026-03-29T02:14:29.601024","MEAN_MOTION":1.00271724,"ECCENTRICITY":0.0003538,"INCLINATION":4.6743,"RA_OF_ASC_NODE":76.2922,"ARG_OF_PERICENTER":293.7781,"MEAN_ANOMALY":99.9415,"EPHEMERIS_TYPE":0,"CLASSIFICATION_TYPE":"U","NORAD_CAT_ID":27426,"ELEMENT_SET_NO":999,"REV_AT_EPOCH":8732,"BSTAR":0,"MEAN_MOTION_DOT":-7.3e-7,"MEAN_MOTION_DDOT":0},{"OBJECT_NAME":"INTELSAT 905 (IS-905)","OBJECT_ID":"2002-027A","EPOCH":"2026-03-29T00:04:38.606304","MEAN_MOTION":1.00272596,"ECCENTRICITY":0.0003092,"INCLINATION":6.5537,"RA_OF_ASC_NODE":70.7516,"ARG_OF_PERICENTER":303.9568,"MEAN_ANOMALY":35.6616,"EPHEMERIS_TYPE":0,"CLASSIFICATION_TYPE":"U","NORAD_CAT_ID":27438,"ELEMENT_SET_NO":999,"REV_AT_EPOCH":5055,"BSTAR":0,"MEAN_MOTION_DOT":8.0e-7,"MEAN_MOTION_DDOT":0},{"OBJECT_NAME":"GALAXY 3C (G-3C)","OBJECT_ID":"2002-030A","EPOCH":"2026-03-28T08:02:38.698368","MEAN_MOTION":1.00270958,"ECCENTRICITY":0.00011989,"INCLINATION":3.5233,"RA_OF_ASC_NODE":79.0943,"ARG_OF_PERICENTER":26.0425,"MEAN_ANOMALY":106.4195,"EPHEMERIS_TYPE":0,"CLASSIFICATION_TYPE":"U","NORAD_CAT_ID":27445,"ELEMENT_SET_NO":999,"REV_AT_EPOCH":4568,"BSTAR":0,"MEAN_MOTION_DOT":-1.69e-6,"MEAN_MOTION_DDOT":0},{"OBJECT_NAME":"INTELSAT 906 (IS-906)","OBJECT_ID":"2002-041A","EPOCH":"2026-03-29T01:21:27.188352","MEAN_MOTION":1.00270543,"ECCENTRICITY":0.000339,"INCLINATION":5.6013,"RA_OF_ASC_NODE":73.8931,"ARG_OF_PERICENTER":297.8281,"MEAN_ANOMALY":259.2491,"EPHEMERIS_TYPE":0,"CLASSIFICATION_TYPE":"U","NORAD_CAT_ID":27513,"ELEMENT_SET_NO":999,"REV_AT_EPOCH":8622,"BSTAR":0,"MEAN_MOTION_DOT":-2.0e-8,"MEAN_MOTION_DDOT":0},{"OBJECT_NAME":"GALAXY 13 (HORIZONS-1)","OBJECT_ID":"2003-044A","EPOCH":"2026-03-29T03:45:48.118752","MEAN_MOTION":1.00272351,"ECCENTRICITY":0.0002184,"INCLINATION":1.2114,"RA_OF_ASC_NODE":84.879,"ARG_OF_PERICENTER":285.5814,"MEAN_ANOMALY":82.5332,"EPHEMERIS_TYPE":0,"CLASSIFICATION_TYPE":"U","NORAD_CAT_ID":27954,"ELEMENT_SET_NO":999,"REV_AT_EPOCH":4577,"BSTAR":0,"MEAN_MOTION_DOT":1.14e-6,"MEAN_MOTION_DDOT":0},{"OBJECT_NAME":"INTELSAT 10-02","OBJECT_ID":"2004-022A","EPOCH":"2026-03-28T22:38:38.756832","MEAN_MOTION":1.00272131,"ECCENTRICITY":0.0001272,"INCLINATION":0.0371,"RA_OF_ASC_NODE":60.9326,"ARG_OF_PERICENTER":359.139,"MEAN_ANOMALY":104.8927,"EPHEMERIS_TYPE":0,"CLASSIFICATION_TYPE":"U","NORAD_CAT_ID":28358,"ELEMENT_SET_NO":999,"REV_AT_EPOCH":7975,"BSTAR":0,"MEAN_MOTION_DOT":-3.1e-7,"MEAN_MOTION_DDOT":0},{"OBJECT_NAME":"DIRECTV 8","OBJECT_ID":"2005-019A","EPOCH":"2026-03-29T05:16:10.016832","MEAN_MOTION":1.00270562,"ECCENTRICITY":0.0003307,"INCLINATION":0.0248,"RA_OF_ASC_NODE":176.3736,"ARG_OF_PERICENTER":202.5301,"MEAN_ANOMALY":127.719,"EPHEMERIS_TYPE":0,"CLASSIFICATION_TYPE":"U","NORAD_CAT_ID":28659,"ELEMENT_SET_NO":999,"REV_AT_EPOCH":7627,"BSTAR":0,"MEAN_MOTION_DOT":0,"MEAN_MOTION_DDOT":0},{"OBJECT_NAME":"GALAXY 28 (G-28)","OBJECT_ID":"2005-022A","EPOCH":"2026-03-29T04:20:52.255104","MEAN_MOTION":1.00272027,"ECCENTRICITY":0.0002278,"INCLINATION":3.0922,"RA_OF_ASC_NODE":79.9135,"ARG_OF_PERICENTER":289.1949,"MEAN_ANOMALY":215.6108,"EPHEMERIS_TYPE":0,"CLASSIFICATION_TYPE":"U","NORAD_CAT_ID":28702,"ELEMENT_SET_NO":999,"REV_AT_EPOCH":5117,"BSTAR":0,"MEAN_MOTION_DOT":-2.17e-6,"MEAN_MOTION_DDOT":0},{"OBJECT_NAME":"GALAXY 16 (G-16)","OBJECT_ID":"2006-023A","EPOCH":"2026-03-29T05:18:06.242112","MEAN_MOTION":1.00271911,"ECCENTRICITY":0.0002716,"INCLINATION":0.0147,"RA_OF_ASC_NODE":187.6425,"ARG_OF_PERICENTER":185.8637,"MEAN_ANOMALY":153.6368,"EPHEMERIS_TYPE":0,"CLASSIFICATION_TYPE":"U","NORAD_CAT_ID":29236,"ELEMENT_SET_NO":999,"REV_AT_EPOCH":7217,"BSTAR":0,"MEAN_MOTION_DOT":-1.46e-6,"MEAN_MOTION_DDOT":0},{"OBJECT_NAME":"DIRECTV 9S","OBJECT_ID":"2006-043A","EPOCH":"2026-03-29T03:22:55.447392","MEAN_MOTION":1.00271652,"ECCENTRICITY":0.0003516,"INCLINATION":2.2149,"RA_OF_ASC_NODE":81.8507,"ARG_OF_PERICENTER":297.2327,"MEAN_ANOMALY":116.9935,"EPHEMERIS_TYPE":0,"CLASSIFICATION_TYPE":"U","NORAD_CAT_ID":29494,"ELEMENT_SET_NO":999,"REV_AT_EPOCH":5058,"BSTAR":0,"MEAN_MOTION_DOT":-1.31e-6,"MEAN_MOTION_DDOT":0},{"OBJECT_NAME":"GALAXY 17 (G-17)","OBJECT_ID":"2007-016B","EPOCH":"2026-03-29T04:04:16.348224","MEAN_MOTION":1.00270697,"ECCENTRICITY":0.0003708,"INCLINATION":2.7704,"RA_OF_ASC_NODE":80.8884,"ARG_OF_PERICENTER":297.8942,"MEAN_ANOMALY":143.85,"EPHEMERIS_TYPE":0,"CLASSIFICATION_TYPE":"U","NORAD_CAT_ID":31307,"ELEMENT_SET_NO":999,"REV_AT_EPOCH":6900,"BSTAR":0,"MEAN_MOTION_DOT":-2.23e-6,"MEAN_MOTION_DDOT":0},{"OBJECT_NAME":"INTELSAT 11 (IS-11)","OBJECT_ID":"2007-044B","EPOCH":"2026-03-28T23:54:20.543040","MEAN_MOTION":0.99050169,"ECCENTRICITY":0.0003568,"INCLINATION":3.3574,"RA_OF_ASC_NODE":79.6263,"ARG_OF_PERICENTER":215.2094,"MEAN_ANOMALY":8.6477,"EPHEMERIS_TYPE":0,"CLASSIFICATION_TYPE":"U","NORAD_CAT_ID":32253,"ELEMENT_SET_NO":999,"REV_AT_EPOCH":6765,"BSTAR":0,"MEAN_MOTION_DOT":-2.19e-6,"MEAN_MOTION_DDOT":0},{"OBJECT_NAME":"HORIZONS-2","OBJECT_ID":"2007-063B","EPOCH":"2026-03-29T04:07:31.035936","MEAN_MOTION":1.00272249,"ECCENTRICITY":0.0002644,"INCLINATION":2.3965,"RA_OF_ASC_NODE":81.5992,"ARG_OF_PERICENTER":289.244,"MEAN_ANOMALY":163.8118,"EPHEMERIS_TYPE":0,"CLASSIFICATION_TYPE":"U","NORAD_CAT_ID":32388,"ELEMENT_SET_NO":999,"REV_AT_EPOCH":6701,"BSTAR":0,"MEAN_MOTION_DOT":-2.71e-6,"MEAN_MOTION_DDOT":0},{"OBJECT_NAME":"DIRECTV 11","OBJECT_ID":"2008-013A","EPOCH":"2026-03-29T03:10:38.714592","MEAN_MOTION":1.00269436,"ECCENTRICITY":3.64e-5,"INCLINATION":0.0079,"RA_OF_ASC_NODE":114.4083,"ARG_OF_PERICENTER":223.4014,"MEAN_ANOMALY":157.2057,"EPHEMERIS_TYPE":0,"CLASSIFICATION_TYPE":"U","NORAD_CAT_ID":32729,"ELEMENT_SET_NO":999,"REV_AT_EPOCH":4479,"BSTAR":0,"MEAN_MOTION_DOT":0,"MEAN_MOTION_DDOT":0},{"OBJECT_NAME":"GALAXY 18 (G-18)","OBJECT_ID":"2008-024A","EPOCH":"2026-03-29T02:10:52.447584","MEAN_MOTION":1.00272332,"ECCENTRICITY":0.0002906,"INCLINATION":0.0209,"RA_OF_ASC_NODE":110.4122,"ARG_OF_PERICENTER":259.9094,"MEAN_ANOMALY":85.8812,"EPHEMERIS_TYPE":0,"CLASSIFICATION_TYPE":"U","NORAD_CAT_ID":32951,"ELEMENT_SET_NO":999,"REV_AT_EPOCH":4504,"BSTAR":0,"MEAN_MOTION_DOT":6.0e-8,"MEAN_MOTION_DDOT":0}]
